start=new Date('2022-07-24T00:00:00.000Z').valueOf();
sats=[{"GP_ID":"208713953","COUNTRY_CODE":"US","SEMIMAJOR_AXIS":"6925.392","RCS_SIZE":"LARGE","NORAD_CAT_ID":"45360","ARG_OF_PERICENTER":"82.5043","INCLINATION":"53.0559","OBJECT_ID":"2020-019A","CLASSIFICATION_TYPE":"U","OBJECT_NAME":"STARLINK-1279","DECAY_DATE":null,"OBJECT_TYPE":"PAYLOAD","ELEMENT_SET_NO":"999","LAUNCH_DATE":"2020-03-18","EPOCH":"2022-07-23T20:35:02.553216","SITE":"AFETR","REV_AT_EPOCH":"13045","MEAN_MOTION":"15.06385704","BSTAR":"0.00025342000000","TIME_SYSTEM":"UTC","APOAPSIS":"548.354","FILE":"3520558","REF_FRAME":"TEME","TLE_LINE1":"1 45360U 20019A   22204.85766844  .00003494  00000-0  25342-3 0  9997","RA_OF_ASC_NODE":"324.0276","MEAN_ANOMALY":"277.6126","MEAN_ELEMENT_THEORY":"SGP4","PERIOD":"95.593","TLE_LINE2":"2 45360  53.0559 324.0276 0001584  82.5043 277.6126 15.06385704130454","EPHEMERIS_TYPE":"0","CENTER_NAME":"EARTH","MEAN_MOTION_DDOT":"0.0000000000000","PERIAPSIS":"546.160","MEAN_MOTION_DOT":"0.00003494","ECCENTRICITY":"0.00015840"},{"ARG_OF_PERICENTER":"82.5367","RCS_SIZE":"LARGE","NORAD_CAT_ID":"45361","OBJECT_ID":"2020-019B","INCLINATION":"53.0559","SEMIMAJOR_AXIS":"6925.292","COUNTRY_CODE":"US","GP_ID":"208734589","LAUNCH_DATE":"2020-03-18","ELEMENT_SET_NO":"999","OBJECT_TYPE":"PAYLOAD","CLASSIFICATION_TYPE":"U","DECAY_DATE":null,"OBJECT_NAME":"STARLINK-1301","REF_FRAME":"TEME","APOAPSIS":"548.226","FILE":"3520602","REV_AT_EPOCH":"13031","SITE":"AFETR","EPOCH":"2022-07-23T18:42:14.801472","BSTAR":"0.00096931000000","TIME_SYSTEM":"UTC","MEAN_MOTION":"15.06418337","ECCENTRICITY":"0.00015430","MEAN_MOTION_DOT":"0.00014193","TLE_LINE2":"2 45361  53.0559 334.3787 0001543  82.5367 277.5797 15.06418337130317","MEAN_ELEMENT_THEORY":"SGP4","PERIOD":"95.591","MEAN_ANOMALY":"277.5797","TLE_LINE1":"1 45361U 20019B   22204.77933798  .00014193  00000-0  96931-3 0  9993","RA_OF_ASC_NODE":"334.3787","PERIAPSIS":"546.089","MEAN_MOTION_DDOT":"0.0000000000000","CENTER_NAME":"EARTH","EPHEMERIS_TYPE":"0"},{"ELEMENT_SET_NO":"999","OBJECT_TYPE":"PAYLOAD","LAUNCH_DATE":"2020-03-18","CLASSIFICATION_TYPE":"U","OBJECT_NAME":"STARLINK-1306","DECAY_DATE":null,"ARG_OF_PERICENTER":"78.5563","RCS_SIZE":"LARGE","NORAD_CAT_ID":"45362","OBJECT_ID":"2020-019C","INCLINATION":"53.0551","COUNTRY_CODE":"US","GP_ID":"208733839","SEMIMAJOR_AXIS":"6925.339","ECCENTRICITY":"0.00014110","MEAN_MOTION_DOT":"0.00004582","MEAN_ANOMALY":"281.5584","TLE_LINE1":"1 45362U 20019C   22204.82540303  .00004582  00000-0  32624-3 0  9996","RA_OF_ASC_NODE":"354.1689","TLE_LINE2":"2 45362  53.0551 354.1689 0001411  78.5563 281.5584 15.06403000130037","PERIOD":"95.592","MEAN_ELEMENT_THEORY":"SGP4","EPHEMERIS_TYPE":"0","PERIAPSIS":"546.227","MEAN_MOTION_DDOT":"0.0000000000000","CENTER_NAME":"EARTH","APOAPSIS":"548.182","FILE":"3520602","REF_FRAME":"TEME","EPOCH":"2022-07-23T19:48:34.821792","REV_AT_EPOCH":"13003","SITE":"AFETR","MEAN_MOTION":"15.06403000","TIME_SYSTEM":"UTC","BSTAR":"0.00032624000000"},{"OBJECT_TYPE":"PAYLOAD","ELEMENT_SET_NO":"999","LAUNCH_DATE":"2020-03-18","OBJECT_NAME":"STARLINK-1313","DECAY_DATE":null,"CLASSIFICATION_TYPE":"U","INCLINATION":"53.0554","OBJECT_ID":"2020-019E","RCS_SIZE":"LARGE","NORAD_CAT_ID":"45364","ARG_OF_PERICENTER":"76.5153","GP_ID":"208734089","COUNTRY_CODE":"US","SEMIMAJOR_AXIS":"6925.331","MEAN_MOTION_DOT":"0.00003390","ECCENTRICITY":"0.00014980","EPHEMERIS_TYPE":"0","CENTER_NAME":"EARTH","PERIAPSIS":"546.158","MEAN_MOTION_DDOT":"0.0000000000000","RA_OF_ASC_NODE":"324.6463","TLE_LINE1":"1 45364U 20019E   22204.72127117  .00003390  00000-0  24632-3 0  9997","MEAN_ANOMALY":"283.6002","PERIOD":"95.592","MEAN_ELEMENT_THEORY":"SGP4","TLE_LINE2":"2 45364  53.0554 324.6463 0001498  76.5153 283.6002 15.06405829130435","APOAPSIS":"548.233","FILE":"3520602","REF_FRAME":"TEME","MEAN_MOTION":"15.06405829","BSTAR":"0.00024632000000","TIME_SYSTEM":"UTC","EPOCH":"2022-07-23T17:18:37.829088","REV_AT_EPOCH":"13043","SITE":"AFETR"},{"ECCENTRICITY":"0.00013810","MEAN_MOTION_DOT":"0.00004327","MEAN_ANOMALY":"267.3896","TLE_LINE1":"1 45365U 20019F   22204.74808569  .00004327  00000-0  31588-3 0  9996","RA_OF_ASC_NODE":"334.5279","TLE_LINE2":"2 45365  53.0008 334.5279 0001381  92.7250 267.3896 15.05588651130258","MEAN_ELEMENT_THEORY":"SGP4","PERIOD":"95.644","EPHEMERIS_TYPE":"0","MEAN_MOTION_DDOT":"0.0000000000000","PERIAPSIS":"548.745","CENTER_NAME":"EARTH","FILE":"3520602","APOAPSIS":"550.658","REF_FRAME":"TEME","EPOCH":"2022-07-23T17:57:14.603616","SITE":"AFETR","REV_AT_EPOCH":"13025","MEAN_MOTION":"15.05588651","BSTAR":"0.00031588000000","TIME_SYSTEM":"UTC","ELEMENT_SET_NO":"999","OBJECT_TYPE":"PAYLOAD","LAUNCH_DATE":"2020-03-18","CLASSIFICATION_TYPE":"U","OBJECT_NAME":"STARLINK-1317","DECAY_DATE":null,"ARG_OF_PERICENTER":"92.7250","RCS_SIZE":"LARGE","NORAD_CAT_ID":"45365","OBJECT_ID":"2020-019F","INCLINATION":"53.0008","COUNTRY_CODE":"US","GP_ID":"208734340","SEMIMAJOR_AXIS":"6927.836"},{"NORAD_CAT_ID":"45366","RCS_SIZE":"LARGE","ARG_OF_PERICENTER":"86.6476","INCLINATION":"53.0559","OBJECT_ID":"2020-019G","GP_ID":"208735089","COUNTRY_CODE":"US","SEMIMAJOR_AXIS":"6925.375","OBJECT_TYPE":"PAYLOAD","ELEMENT_SET_NO":"999","LAUNCH_DATE":"2020-03-18","CLASSIFICATION_TYPE":"U","OBJECT_NAME":"STARLINK-1262","DECAY_DATE":null,"FILE":"3520602","APOAPSIS":"548.665","REF_FRAME":"TEME","EPOCH":"2022-07-23T17:51:48.825504","SITE":"AFETR","REV_AT_EPOCH":"13003","MEAN_MOTION":"15.06391350","TIME_SYSTEM":"UTC","BSTAR":"0.00028240000000","MEAN_MOTION_DOT":"0.00003926","ECCENTRICITY":"0.00020580","TLE_LINE1":"1 45366U 20019G   22204.74431511  .00003926  00000-0  28240-3 0  9991","RA_OF_ASC_NODE":"354.5229","MEAN_ANOMALY":"273.4748","MEAN_ELEMENT_THEORY":"SGP4","PERIOD":"95.593","TLE_LINE2":"2 45366  53.0559 354.5229 0002058  86.6476 273.4748 15.06391350130030","EPHEMERIS_TYPE":"0","CENTER_NAME":"EARTH","MEAN_MOTION_DDOT":"0.0000000000000","PERIAPSIS":"545.815"},{"ECCENTRICITY":"0.00016720","MEAN_MOTION_DOT":"0.00011915","TLE_LINE2":"2 45367  53.0538 354.7188 0001672  94.2394 265.8786 15.06417124130023","MEAN_ELEMENT_THEORY":"SGP4","PERIOD":"95.591","MEAN_ANOMALY":"265.8786","RA_OF_ASC_NODE":"354.7188","TLE_LINE1":"1 45367U 20019H   22204.70009182  .00011915  00000-0  81708-3 0  9998","MEAN_MOTION_DDOT":"0.0000000000000","PERIAPSIS":"546.003","CENTER_NAME":"EARTH","EPHEMERIS_TYPE":"0","REF_FRAME":"TEME","FILE":"3520602","APOAPSIS":"548.319","SITE":"AFETR","REV_AT_EPOCH":"13002","EPOCH":"2022-07-23T16:48:07.933248","BSTAR":"0.00081708000000","TIME_SYSTEM":"UTC","MEAN_MOTION":"15.06417124","LAUNCH_DATE":"2020-03-18","ELEMENT_SET_NO":"999","OBJECT_TYPE":"PAYLOAD","CLASSIFICATION_TYPE":"U","DECAY_DATE":null,"OBJECT_NAME":"STARLINK-1273","ARG_OF_PERICENTER":"94.2394","RCS_SIZE":"LARGE","NORAD_CAT_ID":"45367","OBJECT_ID":"2020-019H","INCLINATION":"53.0538","SEMIMAJOR_AXIS":"6925.296","COUNTRY_CODE":"US","GP_ID":"208733340"},{"SEMIMAJOR_AXIS":"6925.374","COUNTRY_CODE":"US","GP_ID":"208733590","OBJECT_ID":"2020-019J","INCLINATION":"53.0553","ARG_OF_PERICENTER":"90.3847","NORAD_CAT_ID":"45368","RCS_SIZE":"LARGE","DECAY_DATE":null,"OBJECT_NAME":"STARLINK-1276","CLASSIFICATION_TYPE":"U","LAUNCH_DATE":"2020-03-18","ELEMENT_SET_NO":"999","OBJECT_TYPE":"PAYLOAD","TIME_SYSTEM":"UTC","BSTAR":"-0.00001606400000","MEAN_MOTION":"15.06391669","SITE":"AFETR","REV_AT_EPOCH":"13004","EPOCH":"2022-07-23T19:16:43.449024","REF_FRAME":"TEME","APOAPSIS":"548.079","FILE":"3520602","MEAN_MOTION_DDOT":"0.0000000000000","PERIAPSIS":"546.399","CENTER_NAME":"EARTH","EPHEMERIS_TYPE":"0","TLE_LINE2":"2 45368  53.0553 354.2718 0001213  90.3847 269.7281 15.06391669130046","PERIOD":"95.593","MEAN_ELEMENT_THEORY":"SGP4","MEAN_ANOMALY":"269.7281","TLE_LINE1":"1 45368U 20019J   22204.80328066 -.00000521  00000-0 -16064-4 0  9992","RA_OF_ASC_NODE":"354.2718","ECCENTRICITY":"0.00012130","MEAN_MOTION_DOT":"-0.00000521"},{"COUNTRY_CODE":"US","GP_ID":"208734839","SEMIMAJOR_AXIS":"6925.368","OBJECT_ID":"2020-019K","INCLINATION":"53.0551","ARG_OF_PERICENTER":"77.6160","RCS_SIZE":"LARGE","NORAD_CAT_ID":"45369","OBJECT_NAME":"STARLINK-1277","DECAY_DATE":null,"CLASSIFICATION_TYPE":"U","ELEMENT_SET_NO":"999","OBJECT_TYPE":"PAYLOAD","LAUNCH_DATE":"2020-03-18","MEAN_MOTION":"15.06393499","BSTAR":"0.00007906400000","TIME_SYSTEM":"UTC","EPOCH":"2022-07-23T19:15:21.875328","SITE":"AFETR","REV_AT_EPOCH":"13004","FILE":"3520602","APOAPSIS":"548.148","REF_FRAME":"TEME","EPHEMERIS_TYPE":"0","MEAN_MOTION_DDOT":"0.0000000000000","PERIAPSIS":"546.319","CENTER_NAME":"EARTH","MEAN_ANOMALY":"282.4977","RA_OF_ASC_NODE":"354.2593","TLE_LINE1":"1 45369U 20019K   22204.80233652  .00000896  00000-0  79064-4 0  9991","TLE_LINE2":"2 45369  53.0551 354.2593 0001321  77.6160 282.4977 15.06393499130049","MEAN_ELEMENT_THEORY":"SGP4","PERIOD":"95.593","ECCENTRICITY":"0.00013210","MEAN_MOTION_DOT":"0.00000896"},{"ECCENTRICITY":"0.00015040","MEAN_MOTION_DOT":"0.00001632","EPHEMERIS_TYPE":"0","PERIAPSIS":"546.209","MEAN_MOTION_DDOT":"0.0000000000000","CENTER_NAME":"EARTH","MEAN_ANOMALY":"284.0813","TLE_LINE1":"1 45370U 20019L   22204.79223595  .00001632  00000-0  12847-3 0  9990","RA_OF_ASC_NODE":"354.3234","TLE_LINE2":"2 45370  53.0566 354.3234 0001504  76.0343 284.0813 15.06387919130046","MEAN_ELEMENT_THEORY":"SGP4","PERIOD":"95.593","APOAPSIS":"548.292","FILE":"3520602","REF_FRAME":"TEME","MEAN_MOTION":"15.06387919","BSTAR":"0.00012847000000","TIME_SYSTEM":"UTC","EPOCH":"2022-07-23T19:00:49.186080","REV_AT_EPOCH":"13004","SITE":"AFETR","ELEMENT_SET_NO":"999","OBJECT_TYPE":"PAYLOAD","LAUNCH_DATE":"2020-03-18","OBJECT_NAME":"STARLINK-1281","DECAY_DATE":null,"CLASSIFICATION_TYPE":"U","OBJECT_ID":"2020-019L","INCLINATION":"53.0566","ARG_OF_PERICENTER":"76.0343","RCS_SIZE":"LARGE","NORAD_CAT_ID":"45370","COUNTRY_CODE":"US","GP_ID":"208734590","SEMIMAJOR_AXIS":"6925.386"}];
